ONEWEB-0275             
1 48993U 21060AC  25121.93387105  .00000037  00000+0  62539-4 0  9997
2 48993  87.9017 310.7569 0001665  86.8862 273.2459 13.16596814186735
ONEWEB-0276             
1 48994U 21060AD  25121.96713149  .00000230  00000+0  56757-3 0  9991
2 48994  87.9016 310.7475 0001443  94.2594 265.8702 13.16592054186763
ONEWEB-0277             
1 48995U 21060AE  25121.90379876  .00000130  00000+0  30602-3 0  9991
2 48995  87.9016 310.7971 0001353  81.0282 279.1002 13.16593770186737
ONEWEB-0278             
1 48996U 21060AF  25121.97029203  .00000018  00000+0  13578-4 0  9994
2 48996  87.9012 310.7429 0001836  97.4589 262.6751 13.16591999186895
ONEWEB-0279             
1 48997U 21060AG  25121.90221019  .00000149  00000+0  35566-3 0  9992
2 48997  87.9017 310.7534 0001531  80.7769 279.3535 13.16592363186807
ONEWEB-0280             
1 48998U 21060AH  25121.91726937  .00000090  00000+0  20253-3 0  9995
2 48998  87.9020 310.7561 0001436  97.7294 262.3999 13.16594757186734
ONEWEB-0281             
1 48999U 21060AJ  25121.92278670 -.00000015  00000+0 -71820-4 0  9999
2 48999  87.9016 310.7533 0001839  85.7959 274.3382 13.16596449186820
ONEWEB-0282             
1 49000U 21060AK  25121.57288822  .00000030  00000+0  43730-4 0  9998
2 49000  87.9014 310.8392 0001544  92.4319 267.6988 13.16592972185445
